[
    {
        "Altitude(m)": 553593.2118114808,
        "Argument of Periapsis(deg)": 0.006622991110713501,
        "Eccentricity": 0.0,
        "Inclination(deg)": 53.0,
        "Latitude(deg)": 16.50586378021775,
        "Longitude(deg)": -128.60388256579094,
        "Mean Anomaly(deg)": 159.18249286757757,
        "RAAN(deg)": 164.990143368528,
        "Satellite Name": "Starlink Shell 1 735",
        "Satellite Number": 735,
        "Semi-Major Axis(m)": 6931778.249405717,
        "Time(s)": 190
    },
    {
        "Altitude(m)": 553571.0380917327,
        "Argument of Periapsis(deg)": 0.0069715695902247375,
        "Eccentricity": 0.0,
        "Inclination(deg)": 53.0,
        "Latitude(deg)": 16.014306332625903,
        "Longitude(deg)": -128.2365484278207,
        "Mean Anomaly(deg)": 159.80932407113426,
        "RAAN(deg)": 164.98962459845052,
        "Satellite Name": "Starlink Shell 1 735",
        "Satellite Number": 735,
        "Semi-Major Axis(m)": 6931778.249405717,
        "Time(s)": 200
    },
    {
        "Altitude(m)": 553551.2442570765,
        "Argument of Periapsis(deg)": 0.007320148069735974,
        "Eccentricity": 0.0,
        "Inclination(deg)": 53.0,
        "Latitude(deg)": 15.521956208375048,
        "Longitude(deg)": -127.87121174235646,
        "Mean Anomaly(deg)": 160.43615527469103,
        "RAAN(deg)": 164.98910582837306,
        "Satellite Name": "Starlink Shell 1 735",
        "Satellite Number": 735,
        "Semi-Major Axis(m)": 6931778.249405717,
        "Time(s)": 210
    },
    {
        "Altitude(m)": 553533.8621755587,
        "Argument of Periapsis(deg)": 0.007668726549247212,
        "Eccentricity": 0.0,
        "Inclination(deg)": 53.0,
        "Latitude(deg)": 15.028842703995865,
        "Longitude(deg)": -127.50780200076959,
        "Mean Anomaly(deg)": 161.0629864782477,
        "RAAN(deg)": 164.98858705829562,
        "Satellite Name": "Starlink Shell 1 735",
        "Satellite Number": 735,
        "Semi-Major Axis(m)": 6931778.249405717,
        "Time(s)": 220
    },
    {
        "Altitude(m)": 553518.922636636,
        "Argument of Periapsis(deg)": 0.00801730502875845,
        "Eccentricity": 0.0,
        "Inclination(deg)": 53.0,
        "Latitude(deg)": 14.534994691486627,
        "Longitude(deg)": -127.14624951065746,
        "Mean Anomaly(deg)": 161.68981768180444,
        "RAAN(deg)": 164.9880682882181,
        "Satellite Name": "Starlink Shell 1 735",
        "Satellite Number": 735,
        "Semi-Major Axis(m)": 6931778.249405717,
        "Time(s)": 230
    },
    {
        "Altitude(m)": 553506.4553332212,
        "Argument of Periapsis(deg)": 0.008365883508269684,
        "Eccentricity": 0.0,
        "Inclination(deg)": 53.0,
        "Latitude(deg)": 14.04044063549657,
        "Longitude(deg)": -126.78648486461334,
        "Mean Anomaly(deg)": 162.31664888536113,
        "RAAN(deg)": 164.98754951814064,
        "Satellite Name": "Starlink Shell 1 735",
        "Satellite Number": 735,
        "Semi-Major Axis(m)": 6931778.249405717,
        "Time(s)": 240
    },
    {
        "Altitude(m)": 553496.4888442818,
        "Argument of Periapsis(deg)": 0.008714461987780921,
        "Eccentricity": 0.0,
        "Inclination(deg)": 53.0,
        "Latitude(deg)": 13.545208610148865,
        "Longitude(deg)": -126.42843992183117,
        "Mean Anomaly(deg)": 162.94348008891785,
        "RAAN(deg)": 164.98703074806318,
        "Satellite Name": "Starlink Shell 1 735",
        "Satellite Number": 735,
        "Semi-Major Axis(m)": 6931778.249405717,
        "Time(s)": 250
    },
    {
        "Altitude(m)": 553489.0506179419,
        "Argument of Periapsis(deg)": 0.009063040467292158,
        "Eccentricity": 0.0,
        "Inclination(deg)": 53.0,
        "Latitude(deg)": 13.049326315514731,
        "Longitude(deg)": -126.07204727682283,
        "Mean Anomaly(deg)": 163.57031129247463,
        "RAAN(deg)": 164.98651197798569,
        "Satellite Name": "Starlink Shell 1 735",
        "Satellite Number": 735,
        "Semi-Major Axis(m)": 6931778.249405717,
        "Time(s)": 260
    },
    {
        "Altitude(m)": 553484.1669551438,
        "Argument of Periapsis(deg)": 0.009411618946803396,
        "Eccentricity": 0.0,
        "Inclination(deg)": 53.0,
        "Latitude(deg)": 12.552821093751405,
        "Longitude(deg)": -125.71723972814073,
        "Mean Anomaly(deg)": 164.19714249603126,
        "RAAN(deg)": 164.98599320790822,
        "Satellite Name": "Starlink Shell 1 735",
        "Satellite Number": 735,
        "Semi-Major Axis(m)": 6931778.249405717,
        "Time(s)": 270
    },
    {
        "Altitude(m)": 553481.8629939051,
        "Argument of Periapsis(deg)": 0.009760197426314633,
        "Eccentricity": 0.0,
        "Inclination(deg)": 53.0,
        "Latitude(deg)": 12.055719944918282,
        "Longitude(deg)": -125.36395125999567,
        "Mean Anomaly(deg)": 164.82397369958804,
        "RAAN(deg)": 164.98547443783076,
        "Satellite Name": "Starlink Shell 1 735",
        "Satellite Number": 735,
        "Semi-Major Axis(m)": 6931778.249405717,
        "Time(s)": 280
    },
    {
        "Altitude(m)": 553482.1626940831,
        "Argument of Periapsis(deg)": 0.01010877590582587,
        "Eccentricity": 0.0,
        "Inclination(deg)": 53.0,
        "Latitude(deg)": 11.558049542481974,
        "Longitude(deg)": -125.01211651104087,
        "Mean Anomaly(deg)": 165.45080490314467,
        "RAAN(deg)": 164.98495566775327,
        "Satellite Name": "Starlink Shell 1 735",
        "Satellite Number": 735,
        "Semi-Major Axis(m)": 6931778.249405717,
        "Time(s)": 290
    },
    {
        "Altitude(m)": 553485.0888227375,
        "Argument of Periapsis(deg)": 0.010457354385337106,
        "Eccentricity": 0.0,
        "Inclination(deg)": 53.0,
        "Latitude(deg)": 11.05983624852229,
        "Longitude(deg)": -124.66167024320637,
        "Mean Anomaly(deg)": 166.07763610670145,
        "RAAN(deg)": 164.9844368976758,
        "Satellite Name": "Starlink Shell 1 735",
        "Satellite Number": 735,
        "Semi-Major Axis(m)": 6931778.249405717,
        "Time(s)": 300
    },
    {
        "Altitude(m)": 553490.662940099,
        "Argument of Periapsis(deg)": 0.010805932864848343,
        "Eccentricity": 0.0,
        "Inclination(deg)": 53.0,
        "Latitude(deg)": 10.561106128655421,
        "Longitude(deg)": -124.31254832346912,
        "Mean Anomaly(deg)": 166.70446731025822,
        "RAAN(deg)": 164.98391812759834,
        "Satellite Name": "Starlink Shell 1 735",
        "Satellite Number": 735,
        "Semi-Major Axis(m)": 6931778.249405717,
        "Time(s)": 310
    },
    {
        "Altitude(m)": 553498.9053860906,
        "Argument of Periapsis(deg)": 0.01115451134435958,
        "Eccentricity": 0.0,
        "Inclination(deg)": 53.0,
        "Latitude(deg)": 10.06188496668217,
        "Longitude(deg)": -123.96468719282122,
        "Mean Anomaly(deg)": 167.33129851381486,
        "RAAN(deg)": 164.98339935752085,
        "Satellite Name": "Starlink Shell 1 735",
        "Satellite Number": 735,
        "Semi-Major Axis(m)": 6931778.249405717,
        "Time(s)": 320
    },
    {
        "Altitude(m)": 553509.8352674828,
        "Argument of Periapsis(deg)": 0.011503089823870818,
        "Eccentricity": 0.0,
        "Inclination(deg)": 53.0,
        "Latitude(deg)": 9.562198278975767,
        "Longitude(deg)": -123.61802333531733,
        "Mean Anomaly(deg)": 167.95812971737158,
        "RAAN(deg)": 164.9828805874434,
        "Satellite Name": "Starlink Shell 1 735",
        "Satellite Number": 735,
        "Semi-Major Axis(m)": 6931778.249405717,
        "Time(s)": 330
    },
    {
        "Altitude(m)": 553523.470445625,
        "Argument of Periapsis(deg)": 0.011851668303382053,
        "Eccentricity": 0.0,
        "Inclination(deg)": 53.0,
        "Latitude(deg)": 9.062071328623617,
        "Longitude(deg)": -123.27249426007941,
        "Mean Anomaly(deg)": 168.58496092092827,
        "RAAN(deg)": 164.98236181736593,
        "Satellite Name": "Starlink Shell 1 735",
        "Satellite Number": 735,
        "Semi-Major Axis(m)": 6931778.249405717,
        "Time(s)": 340
    },
    {
        "Altitude(m)": 553539.8275248045,
        "Argument of Periapsis(deg)": 0.012200246782893292,
        "Eccentricity": 0.0,
        "Inclination(deg)": 53.0,
        "Latitude(deg)": 8.561529139331672,
        "Longitude(deg)": -122.92803797051761,
        "Mean Anomaly(deg)": 169.21179212448504,
        "RAAN(deg)": 164.98184304728844,
        "Satellite Name": "Starlink Shell 1 735",
        "Satellite Number": 735,
        "Semi-Major Axis(m)": 6931778.249405717,
        "Time(s)": 350
    },
    {
        "Altitude(m)": 553558.9218412278,
        "Argument of Periapsis(deg)": 0.012548825262404526,
        "Eccentricity": 0.0,
        "Inclination(deg)": 53.0,
        "Latitude(deg)": 8.06059650910543,
        "Longitude(deg)": -122.58459243364337,
        "Mean Anomaly(deg)": 169.83862332804176,
        "RAAN(deg)": 164.98132427721097,
        "Satellite Name": "Starlink Shell 1 735",
        "Satellite Number": 735,
        "Semi-Major Axis(m)": 6931778.249405717,
        "Time(s)": 360
    },
    {
        "Altitude(m)": 553580.7674526197,
        "Argument of Periapsis(deg)": 0.012897403741915765,
        "Eccentricity": 0.0,
        "Inclination(deg)": 53.0,
        "Latitude(deg)": 7.559298023721401,
        "Longitude(deg)": -122.24209656234916,
        "Mean Anomaly(deg)": 170.46545453159845,
        "RAAN(deg)": 164.9808055071335,
        "Satellite Name": "Starlink Shell 1 735",
        "Satellite Number": 735,
        "Semi-Major Axis(m)": 6931778.249405717,
        "Time(s)": 370
    }
]